{"type": "FeatureCollection", "features": [ {"type": "Feature", "properties": {"norad_id": 33492, "name": "GOSAT (IBUKI)", "group": "resource", "lat": -74.60278609121735, "lon": 117.34806837343358, "alt_km": 676.8639443272468, "timestamp": "2025-12-03T13:52:09.221913+00:00", "meta": {"OBJECT_NAME": "GOSAT (IBUKI)", "OBJECT_ID": "2009-002A", "EPOCH": "2025-12-03T06:02:13.929504", "MEAN_MOTION": 14.67550956, "ECCENTRICITY": 9.877e-05, "INCLINATION": 98.0767, "RA_OF_ASC_NODE": 85.9869, "ARG_OF_PERICENTER": 84.3385, "MEAN_ANOMALY": 275.7932, "EPHEMERIS_TYPE": 0, "CLASSIFICATION_TYPE": "U", "NORAD_CAT_ID": 33492, "ELEMENT_SET_NO": 999, "REV_AT_EPOCH": 90272, "BSTAR": 0.00025866975, "MEAN_MOTION_DOT": 1.419e-05, "MEAN_MOTION_DDOT": 0}, "tle": {"line1": "1 33492U 09002A   25337.25155011  .00001419  00000+0  25867-3 0  9997", "line2": "2 33492  98.0767  85.9869 0000987  84.3385 275.7932 14.67550956902723"}}, "geometry": {"type": "Point", "coordinates": [117.34806837343358, -74.60278609121735]}}, {"type": "Feature", "properties": {"norad_id": 35681, "name": "DEIMOS-1", "group": "resource", "lat": 61.341078241128464, "lon": -27.0315093655548, "alt_km": 637.6706190533023, "timestamp": "2025-12-03T13:52:09.221924+00:00", "meta": {"OBJECT_NAME": "DEIMOS-1", "OBJECT_ID": "2009-041A", "EPOCH": "2025-12-03T08:27:12.132864", "MEAN_MOTION": 14.74929048, "ECCENTRICITY": 0.00026756, "INCLINATION": 97.7146, "RA_OF_ASC_NODE": 138.3931, "ARG_OF_PERICENTER": 96.9204, "MEAN_ANOMALY": 263.231, "EPHEMERIS_TYPE": 0, "CLASSIFICATION_TYPE": "U", "NORAD_CAT_ID": 35681, "ELEMENT_SET_NO": 999, "REV_AT_EPOCH": 87801, "BSTAR": 0.00016892482, "MEAN_MOTION_DOT": 1.087e-05, "MEAN_MOTION_DDOT": 0}, "tle": {"line1": "1 35681U 09041A   25337.35222376  .00001087  00000+0  16892-3 0  9991", "line2": "2 35681  97.7146 138.3931 0002675  96.9204 263.2310 14.74929048878016"}}, "geometry": {"type": "Point", "coordinates": [-27.0315093655548, 61.341078241128464]}}, {"type": "Feature", "properties": {"norad_id": 35682, "name": "DUBAISAT-1", "group": "resource", "lat": 63.0286462800213, "lon": 92.395451262255, "alt_km": 638.9644157458906, "timestamp": "2025-12-03T13:52:09.221935+00:00", "meta": {"OBJECT_NAME": "DUBAISAT-1", "OBJECT_ID": "2009-041B", "EPOCH": "2025-12-03T08:41:38.285952", "MEAN_MOTION": 14.74559668, "ECCENTRICITY": 0.00101676, "INCLINATION": 97.9784, "RA_OF_ASC_NODE": 108.1807, "ARG_OF_PERICENTER": 346.4691, "MEAN_ANOMALY": 13.6243, "EPHEMERIS_TYPE": 0, "CLASSIFICATION_TYPE": "U", "NORAD_CAT_ID": 35682, "ELEMENT_SET_NO": 999, "REV_AT_EPOCH": 87623, "BSTAR": 0.00028341372, "MEAN_MOTION_DOT": 1.838e-05, "MEAN_MOTION_DDOT": 0}, "tle": {"line1": "1 35682U 09041B   25337.36224868  .00001838  00000+0  28341-3 0  9997", "line2": "2 35682  97.9784 108.1807 0010167 346.4691  13.6243 14.74559668876233"}}, "geometry": {"type": "Point", "coordinates": [92.395451262255, 63.0286462800213]}}, {"type": "Feature", "properties": {"norad_id": 35931, "name": "OCEANSAT-2", "group": "resource", "lat": -10.572108540779139, "lon": 157.56090498151346, "alt_km": 905.6063849835164, "timestamp": "2025-12-03T13:52:09.221946+00:00", "meta": {"OBJECT_NAME": "OCEANSAT-2", "OBJECT_ID": "2009-051A", "EPOCH": "2025-12-03T07:48:57.886272", "MEAN_MOTION": 13.99626673, "ECCENTRICITY": 0.00166046, "INCLINATION": 98.2231, "RA_OF_ASC_NODE": 338.8808, "ARG_OF_PERICENTER": 69.5066, "MEAN_ANOMALY": 290.7881, "EPHEMERIS_TYPE": 0, "CLASSIFICATION_TYPE": "U", "NORAD_CAT_ID": 35931, "ELEMENT_SET_NO": 999, "REV_AT_EPOCH": 85193, "BSTAR": -7.3885464e-05, "MEAN_MOTION_DOT": -1.45e-06, "MEAN_MOTION_DDOT": 0}, "tle": {"line1": "1 35931U 09051A   25337.32566998 -.00000145  00000+0 -73885-4 0  9990", "line2": "2 35931  98.2231 338.8808 0016604  69.5066 290.7881 13.99626673851938"}}, "geometry": {"type": "Point", "coordinates": [157.56090498151346, -10.572108540779139]}}, {"type": "Feature", "properties": {"norad_id": 35946, "name": "WORLDVIEW-2 (WV-2)", "group": "resource", "lat": 40.53089519963877, "lon": -123.88375883980592, "alt_km": 760.5790445032417, "timestamp": "2025-12-03T13:52:09.221957+00:00", "meta": {"OBJECT_NAME": "WORLDVIEW-2 (WV-2)", "OBJECT_ID": "2009-055A", "EPOCH": "2025-12-03T08:12:54.012384", "MEAN_MOTION": 14.37645626, "ECCENTRICITY": 0.00054428, "INCLINATION": 98.4771, "RA_OF_ASC_NODE": 48.5579, "ARG_OF_PERICENTER": 89.3976, "MEAN_ANOMALY": 270.7835, "EPHEMERIS_TYPE": 0, "CLASSIFICATION_TYPE": "U", "NORAD_CAT_ID": 35946, "ELEMENT_SET_NO": 999, "REV_AT_EPOCH": 84750, "BSTAR": 0.0001147151, "MEAN_MOTION_DOT": 3.01e-06, "MEAN_MOTION_DDOT": 0}, "tle": {"line1": "1 35946U 09055A   25337.34229181  .00000301  00000+0  11472-3 0  9997", "line2": "2 35946  98.4771  48.5579 0005442  89.3976 270.7835 14.37645626847500"}}, "geometry": {"type": "Point", "coordinates": [-123.88375883980592, 40.53089519963877]}}, {"type": "Feature", "properties": {"norad_id": 36036, "name": "SMOS", "group": "resource", "lat": 72.36095216396023, "lon": 10.592343526999645, "alt_km": 751.6103848000266, "timestamp": "2025-12-03T13:52:09.221968+00:00", "meta": {"OBJECT_NAME": "SMOS", "OBJECT_ID": "2009-059A", "EPOCH": "2025-12-03T06:42:34.231104", "MEAN_MOTION": 14.39788463, "ECCENTRICITY": 0.00010314, "INCLINATION": 98.4384, "RA_OF_ASC_NODE": 162.4676, "ARG_OF_PERICENTER": 72.1929, "MEAN_ANOMALY": 287.9372, "EPHEMERIS_TYPE": 0, "CLASSIFICATION_TYPE": "U", "NORAD_CAT_ID": 36036, "ELEMENT_SET_NO": 999, "REV_AT_EPOCH": 84526, "BSTAR": 0.00020678744, "MEAN_MOTION_DOT": 6.05e-06, "MEAN_MOTION_DDOT": 0}, "tle": {"line1": "1 36036U 09059A   25337.27956286  .00000605  00000+0  20679-3 0  9993", "line2": "2 36036  98.4384 162.4676 0001031  72.1929 287.9372 14.39788463845269"}}, "geometry": {"type": "Point", "coordinates": [10.592343526999645, 72.36095216396023]}}, {"type": "Feature", "properties": {"norad_id": 36110, "name": "YAOGAN-7", "group": "resource", "lat": 59.01904229102977, "lon": 52.96656354407409, "alt_km": 647.1743035619329, "timestamp": "2025-12-03T13:52:09.221979+00:00", "meta": {"OBJECT_NAME": "YAOGAN-7", "OBJECT_ID": "2009-069A", "EPOCH": "2025-12-03T06:49:37.585920", "MEAN_MOTION": 14.77708999, "ECCENTRICITY": 0.00238023, "INCLINATION": 98.0303, "RA_OF_ASC_NODE": 219.0749, "ARG_OF_PERICENTER": 313.2109, "MEAN_ANOMALY": 46.7113, "EPHEMERIS_TYPE": 0, "CLASSIFICATION_TYPE": "U", "NORAD_CAT_ID": 36110, "ELEMENT_SET_NO": 999, "REV_AT_EPOCH": 86069, "BSTAR": 0.00015998763, "MEAN_MOTION_DOT": 1.098e-05, "MEAN_MOTION_DDOT": 0}, "tle": {"line1": "1 36110U 09069A   25337.28446280  .00001098  00000+0  15999-3 0  9992", "line2": "2 36110  98.0303 219.0749 0023802 313.2109  46.7113 14.77708999860694"}}, "geometry": {"type": "Point", "coordinates": [52.96656354407409, 59.01904229102977]}}, {"type": "Feature", "properties": {"norad_id": 36605, "name": "TANDEM-X", "group": "resource", "lat": 78.7704665583506, "lon": -58.09973372316049, "alt_km": 499.8443142616343, "timestamp": "2025-12-03T13:52:09.221990+00:00", "meta": {"OBJECT_NAME": "TANDEM-X", "OBJECT_ID": "2010-030A", "EPOCH": "2025-12-02T15:22:47.718912", "MEAN_MOTION": 15.19155178, "ECCENTRICITY": 0.00017925, "INCLINATION": 97.4443, "RA_OF_ASC_NODE": 342.1684, "ARG_OF_PERICENTER": 94.9925, "MEAN_ANOMALY": 265.1514, "EPHEMERIS_TYPE": 0, "CLASSIFICATION_TYPE": "U", "NORAD_CAT_ID": 36605, "ELEMENT_SET_NO": 999, "REV_AT_EPOCH": 85680, "BSTAR": 9.0053561e-05, "MEAN_MOTION_DOT": 1.825e-05, "MEAN_MOTION_DDOT": 0}, "tle": {"line1": "1 36605U 10030A   25336.64083008  .00001825  00000+0  90054-4 0  9999", "line2": "2 36605  97.4443 342.1684 0001792  94.9925 265.1514 15.19155178856802"}}, "geometry": {"type": "Point", "coordinates": [-58.09973372316049, 78.7704665583506]}}, {"type": "Feature", "properties": {"norad_id": 36795, "name": "CARTOSAT-2B", "group": "resource", "lat": 12.640495358562791, "lon": 25.146779380885352, "alt_km": 634.6860564303006, "timestamp": "2025-12-03T13:52:09.222001+00:00", "meta": {"OBJECT_NAME": "CARTOSAT-2B", "OBJECT_ID": "2010-035A", "EPOCH": "2025-12-03T08:56:23.173152", "MEAN_MOTION": 14.78764884, "ECCENTRICITY": 0.00128703, "INCLINATION": 97.7866, "RA_OF_ASC_NODE": 26.7066, "ARG_OF_PERICENTER": 105.0523, "MEAN_ANOMALY": 255.2113, "EPHEMERIS_TYPE": 0, "CLASSIFICATION_TYPE": "U", "NORAD_CAT_ID": 36795, "ELEMENT_SET_NO": 999, "REV_AT_EPOCH": 83091, "BSTAR": 0.00016714691, "MEAN_MOTION_DOT": 1.179e-05, "MEAN_MOTION_DDOT": 0}, "tle": {"line1": "1 36795U 10035A   25337.37249043  .00001179  00000+0  16715-3 0  9991", "line2": "2 36795  97.7866  26.7066 0012870 105.0523 255.2113 14.78764884830913"}}, "geometry": {"type": "Point", "coordinates": [25.146779380885352, 12.640495358562791]}}, {"type": "Feature", "properties": {"norad_id": 36834, "name": "YAOGAN-10", "group": "resource", "lat": -78.5616328039412, "lon": 134.0267453700322, "alt_km": 623.3859431065575, "timestamp": "2025-12-03T13:52:09.222011+00:00", "meta": {"OBJECT_NAME": "YAOGAN-10", "OBJECT_ID": "2010-038A", "EPOCH": "2025-12-03T08:22:30.264096", "MEAN_MOTION": 14.84551566, "ECCENTRICITY": 0.00015047, "INCLINATION": 97.9151, "RA_OF_ASC_NODE": 357.2401, "ARG_OF_PERICENTER": 84.5109, "MEAN_ANOMALY": 34.4842, "EPHEMERIS_TYPE": 0, "CLASSIFICATION_TYPE": "U", "NORAD_CAT_ID": 36834, "ELEMENT_SET_NO": 999, "REV_AT_EPOCH": 82814, "BSTAR": 0.00021390439, "MEAN_MOTION_DOT": 1.751e-05, "MEAN_MOTION_DDOT": 0}, "tle": {"line1": "1 36834U 10038A   25337.34896139  .00001751  00000+0  21390-3 0  9990", "line2": "2 36834  97.9151 357.2401 0001504  84.5109  34.4842 14.84551566828140"}}, "geometry": {"type": "Point", "coordinates": [134.0267453700322, -78.5616328039412]}}]}